[{"OBJECT_NAME":"SAOCOM 1A","OBJECT_ID":"2018-076A","EPOCH":"2026-04-29T19:09:50.083776","MEAN_MOTION":14.82156548,"ECCENTRICITY":0.0001529,"INCLINATION":97.8898,"RA_OF_ASC_NODE":307.2484,"ARG_OF_PERICENTER":88.24,"MEAN_ANOMALY":271.8988,"EPHEMERIS_TYPE":0,"CLASSIFICATION_TYPE":"U","NORAD_CAT_ID":43641,"ELEMENT_SET_NO":999,"REV_AT_EPOCH":40893,"BSTAR":5.2801e-5,"MEAN_MOTION_DOT":3.68e-6,"MEAN_MOTION_DDOT":0},{"OBJECT_NAME":"H-2A R/B","OBJECT_ID":"2018-084L","EPOCH":"2026-04-29T15:48:44.646912","MEAN_MOTION":15.43358921,"ECCENTRICITY":0.002361,"INCLINATION":98.8654,"RA_OF_ASC_NODE":348.0094,"ARG_OF_PERICENTER":203.1262,"MEAN_ANOMALY":156.8921,"EPHEMERIS_TYPE":0,"CLASSIFICATION_TYPE":"U","NORAD_CAT_ID":43682,"ELEMENT_SET_NO":999,"REV_AT_EPOCH":41363,"BSTAR":0.0004152,"MEAN_MOTION_DOT":0.00018615,"MEAN_MOTION_DDOT":0},{"OBJECT_NAME":"SAOCOM 1B","OBJECT_ID":"2020-059A","EPOCH":"2026-04-29T19:54:50.985792","MEAN_MOTION":14.82124874,"ECCENTRICITY":0.0001531,"INCLINATION":97.8892,"RA_OF_ASC_NODE":306.3729,"ARG_OF_PERICENTER":87.1047,"MEAN_ANOMALY":273.0341,"EPHEMERIS_TYPE":0,"CLASSIFICATION_TYPE":"U","NORAD_CAT_ID":46265,"ELEMENT_SET_NO":999,"REV_AT_EPOCH":30632,"BSTAR":0.00010919,"MEAN_MOTION_DOT":8.16e-6,"MEAN_MOTION_DDOT":0},{"OBJECT_NAME":"CSS (TIANHE)","OBJECT_ID":"2021-035A","EPOCH":"2026-04-29T19:17:34.939104","MEAN_MOTION":15.63178569,"ECCENTRICITY":0.0006704,"INCLINATION":41.4671,"RA_OF_ASC_NODE":256.5685,"ARG_OF_PERICENTER":298.3463,"MEAN_ANOMALY":61.67,"EPHEMERIS_TYPE":0,"CLASSIFICATION_TYPE":"U","NORAD_CAT_ID":48274,"ELEMENT_SET_NO":999,"REV_AT_EPOCH":28560,"BSTAR":0.00031039,"MEAN_MOTION_DOT":0.00028989,"MEAN_MOTION_DDOT":0},{"OBJECT_NAME":"COSMOS 2550","OBJECT_ID":"2021-056A","EPOCH":"2026-04-28T20:34:54.225120","MEAN_MOTION":15.33829624,"ECCENTRICITY":0.00083995,"INCLINATION":67.1429,"RA_OF_ASC_NODE":249.1245,"ARG_OF_PERICENTER":269.8654,"MEAN_ANOMALY":90.1538,"EPHEMERIS_TYPE":0,"CLASSIFICATION_TYPE":"U","NORAD_CAT_ID":48865,"ELEMENT_SET_NO":999,"REV_AT_EPOCH":27115,"BSTAR":2.522736e-6,"MEAN_MOTION_DOT":-1.09e-6,"MEAN_MOTION_DDOT":0},{"OBJECT_NAME":"CZ-2C R/B","OBJECT_ID":"2022-058K","EPOCH":"2026-04-29T05:47:00.640032","MEAN_MOTION":15.58056658,"ECCENTRICITY":0.003822,"INCLINATION":50.1872,"RA_OF_ASC_NODE":57.4968,"ARG_OF_PERICENTER":57.6083,"MEAN_ANOMALY":302.8579,"EPHEMERIS_TYPE":0,"CLASSIFICATION_TYPE":"U","NORAD_CAT_ID":52794,"ELEMENT_SET_NO":999,"REV_AT_EPOCH":21800,"BSTAR":0.00055004,"MEAN_MOTION_DOT":0.0004334,"MEAN_MOTION_DDOT":0},{"OBJECT_NAME":"CZ-2C R/B","OBJECT_ID":"2022-132E","EPOCH":"2026-04-29T13:09:53.561376","MEAN_MOTION":15.66540875,"ECCENTRICITY":0.0013074,"INCLINATION":97.2926,"RA_OF_ASC_NODE":124.5946,"ARG_OF_PERICENTER":254.2863,"MEAN_ANOMALY":105.6955,"EPHEMERIS_TYPE":0,"CLASSIFICATION_TYPE":"U","NORAD_CAT_ID":54039,"ELEMENT_SET_NO":999,"REV_AT_EPOCH":19832,"BSTAR":0.00043569,"MEAN_MOTION_DOT":0.00045672,"MEAN_MOTION_DDOT":0},{"OBJECT_NAME":"GSLV R/B","OBJECT_ID":"2022-138AN","EPOCH":"2026-04-29T14:13:23.167200","MEAN_MOTION":14.97043031,"ECCENTRICITY":0.0019914,"INCLINATION":87.3808,"RA_OF_ASC_NODE":149.3044,"ARG_OF_PERICENTER":333.1253,"MEAN_ANOMALY":26.8945,"EPHEMERIS_TYPE":0,"CLASSIFICATION_TYPE":"U","NORAD_CAT_ID":54149,"ELEMENT_SET_NO":999,"REV_AT_EPOCH":19154,"BSTAR":0.00017437,"MEAN_MOTION_DOT":2.044e-5,"MEAN_MOTION_DDOT":0},{"OBJECT_NAME":"XRISM","OBJECT_ID":"2023-137A","EPOCH":"2026-04-29T17:50:41.686656","MEAN_MOTION":15.12045612,"ECCENTRICITY":0.0007695,"INCLINATION":31.0022,"RA_OF_ASC_NODE":313.2973,"ARG_OF_PERICENTER":195.5786,"MEAN_ANOMALY":164.4616,"EPHEMERIS_TYPE":0,"CLASSIFICATION_TYPE":"U","NORAD_CAT_ID":57800,"ELEMENT_SET_NO":999,"REV_AT_EPOCH":14552,"BSTAR":0.00029797,"MEAN_MOTION_DOT":5.351e-5,"MEAN_MOTION_DDOT":0},{"OBJECT_NAME":"ACS3","OBJECT_ID":"2024-077B","EPOCH":"2026-04-28T10:13:50.800224","MEAN_MOTION":13.91927163,"ECCENTRICITY":0.00583429,"INCLINATION":97.1803,"RA_OF_ASC_NODE":48.3648,"ARG_OF_PERICENTER":343.7079,"MEAN_ANOMALY":16.2209,"EPHEMERIS_TYPE":0,"CLASSIFICATION_TYPE":"U","NORAD_CAT_ID":59588,"ELEMENT_SET_NO":999,"REV_AT_EPOCH":10111,"BSTAR":0.00075623299,"MEAN_MOTION_DOT":9.48e-6,"MEAN_MOTION_DDOT":0},{"OBJECT_NAME":"HTV-X1","OBJECT_ID":"2025-241A","EPOCH":"2026-04-29T15:30:33.612768","MEAN_MOTION":15.63110381,"ECCENTRICITY":0.0007211,"INCLINATION":51.6351,"RA_OF_ASC_NODE":185.8414,"ARG_OF_PERICENTER":6.0183,"MEAN_ANOMALY":354.0896,"EPHEMERIS_TYPE":0,"CLASSIFICATION_TYPE":"U","NORAD_CAT_ID":66174,"ELEMENT_SET_NO":999,"REV_AT_EPOCH":2875,"BSTAR":0.00014981,"MEAN_MOTION_DOT":0.00013424,"MEAN_MOTION_DDOT":0},{"OBJECT_NAME":"SZ-21 MODULE","OBJECT_ID":"2025-246C","EPOCH":"2026-04-29T08:54:20.568096","MEAN_MOTION":15.72486354,"ECCENTRICITY":0.00036112,"INCLINATION":41.4735,"RA_OF_ASC_NODE":250.4357,"ARG_OF_PERICENTER":348.4591,"MEAN_ANOMALY":11.6169,"EPHEMERIS_TYPE":0,"CLASSIFICATION_TYPE":"U","NORAD_CAT_ID":66515,"ELEMENT_SET_NO":999,"REV_AT_EPOCH":2604,"BSTAR":0.00027400395,"MEAN_MOTION_DOT":0.00037528,"MEAN_MOTION_DDOT":0}]
