SAOCOM 1A               
1 43641U 18076A   26119.79849634  .00000368  00000+0  52801-4 0  9995
2 43641  97.8898 307.2484 0001529  88.2400 271.8988 14.82156548408937
H-2A R/B                
1 43682U 18084L   26119.65885008  .00018615  00000+0  41520-3 0  9998
2 43682  98.8654 348.0094 0023610 203.1262 156.8921 15.43358921413631
SAOCOM 1B               
1 46265U 20059A   26119.82975678  .00000816  00000+0  10919-3 0  9997
2 46265  97.8892 306.3729 0001531  87.1047 273.0341 14.82124874306320
CSS (TIANHE)            
1 48274U 21035A   26119.80387661  .00028989  00000+0  31039-3 0  9998
2 48274  41.4671 256.5685 0006704 298.3463  61.6700 15.63178569285601
COSMOS 2550             
1 48865U 21056A   26118.85757205 -.00000109  00000+0  25227-5 0  9995
2 48865  67.1429 249.1245 0008399 269.8654  90.1538 15.33829624271153
CZ-2C R/B               
1 52794U 22058K   26119.24097963  .00043340  00000+0  55004-3 0  9993
2 52794  50.1872  57.4968 0038220  57.6083 302.8579 15.58056658218009
CZ-2C R/B               
1 54039U 22132E   26119.54853659  .00045672  00000+0  43569-3 0  9998
2 54039  97.2926 124.5946 0013074 254.2863 105.6955 15.66540875198325
GSLV R/B                
1 54149U 22138AN  26119.59262925  .00002044  00000+0  17437-3 0  9992
2 54149  87.3808 149.3044 0019914 333.1253  26.8945 14.97043031191544
XRISM                   
1 57800U 23137A   26119.74353804  .00005351  00000+0  29797-3 0  9999
2 57800  31.0022 313.2973 0007695 195.5786 164.4616 15.12045612145528
ACS3                    
1 59588U 24077B   26118.42628241  .00000948  00000+0  75623-3 0  9998
2 59588  97.1803  48.3648 0058342 343.7079  16.2209 13.91927163101119
HTV-X1                  
1 66174U 25241A   26119.64622237  .00013424  00000+0  14981-3 0  9998
2 66174  51.6351 185.8414 0007211   6.0183 354.0896 15.63110381 28753
SZ-21 MODULE            
1 66515U 25246C   26119.37107139  .00037528  00000+0  27400-3 0  9992
2 66515  41.4735 250.4357 0003611 348.4591  11.6169 15.72486354 26041
